#dP2019 11 21  0  0  0.00000000      96 __u+U ITR00 FIT  IAC
## 2080 345600.00000000   900.00000000 58808 0.0000000000000
+  115   C01C02C03C04C05C06C07C08C09C10C11C13C14C16C19C20C21
+        C22C23C24C25C26C27C28C29C30C32C33C34C35C36C37E01E02
+        E03E04E05E07E08E09E11E12E13E14E15E18E19E21E24E25E26
+        E27E30E31E33E36G01G02G03G04G05G06G07G08G09G10G11G12
+        G13G14G15G16G17G18G19G20G21G22G23G24G25G26G27G28G29
+        G30G31G32J01J02J03J07R01R02R03R05R06R07R08R09R10R11
+        R12R13R14R15R16R17R18R19R20R21R23R24R26  0  0  0  0
++        14 13 14 14 13  9 10  9  9  9  8  9  9  9  9  8  9
++         9  8  9  8  9  8  8  9  8  9  9  9 10  9  9  6  6
++         5  7  5  6  6  6  7  6  6  6  5  5  7  7  6  6  6
++         7  6  6  7  6  5  5  5  6  5  5  5  5  5  5  5  6
++         5  0  5  5  5  5  5  5  5  5  5  5  5  5  5  5  5
++         5  5  5 10  9  9 15  8  7  7  7 11  7  7  7 11  7
++         7  7  7  7  7  7  6  7  7  7  7  0  9  0  0  0  0
%c M  cc GPS ccc cccc cccc cccc cccc ccccc ccccc ccccc ccccc
%c cc cc ccc ccc cccc cccc cccc cccc ccccc ccccc ccccc ccccc
%f  0.0000000  0.000000000  0.00000000000  0.000000000000000
%f  0.0000000  0.000000000  0.00000000000  0.000000000000000
%i    0    0    0    0      0      0      0      0         0
%i    0    0    0    0      0      0      0      0         0
/* INFORMATION & ANALYSIS CENTER (IAC)            RAPID DATA
/* S/V CLOCKS ARE ALIGNED TO GNSS TIME                      
/* G:C1WC2W R:C1PC2P E:C1XC5X C:C2IC6I J:C1CC2S             
/* PCV:IGS14_2076 OL/AL:FES2004  NONE     YN ORB:CoN CLK:CoN
*  2019 11 21 21 15  0.00000000
PC01 -32328.368285  27042.279419    500.120046    168.255399
PC02   4481.911426  41952.996337    362.974866    724.584577
PC03 -14875.661111  39440.712065    790.550056      3.359642
PC04 -39581.108798  14470.169894    419.479566   -421.720782
PC05  21828.091739  36082.270680    228.038600   -121.745671
PC06 -23896.340890  24439.482243 -24601.201214    310.891691
PC07 -15682.356598  37509.636245 -10012.591958    222.586910
PC08  -6598.520233  22907.437913  34925.644677    -38.307503
PC09  -5938.147058  25363.319948 -32982.533665    132.767116
PC10  -4655.249796  41480.729590   4349.451348   -388.615818
PC11 -19597.027635 -12136.969932 -15619.218404    -15.918081
PC13   7375.019366  31551.137447  27205.174040    118.020868
PC14  -9290.836821 -14101.401457  22245.612437    333.201937
PC16 -20392.409102  25125.161221 -27094.868720   -926.905437
PC19  15585.905497   5032.009698 -22580.370429    251.035651
PC20   1973.543677  20513.989401 -18796.267621   -320.101407
PC21  13294.699892 -24265.586779   3714.804955    165.378251
PC22  20426.085343 -13626.960853 -13290.416139   -401.222813
PC23 -15699.213590   4292.076360 -22658.302598   -877.083008
PC24 -10099.139272 -25878.388448   2506.007175   -879.802289
PC25 -18777.580134 -14593.848849 -14584.651708   -421.841076
PC26   2954.405089 -21619.930052  17376.401522    468.901620
PC27 -11236.708719  13839.430788  21462.925346    229.189611
PC28 -25940.992312   4069.399865   9434.085414    220.291920
PC29  25764.677723   7081.143269   8054.913933    149.305583
PC30  10340.392141  15187.346136  21003.568095    228.084718
PC32 -13122.612242  24345.700095  -3692.153737   -865.075694
PC33 -15583.427071  -5078.872437  22581.060506   -591.304581
PC34 -10694.549323 -15189.687737 -20829.126588   -251.897069
PC35  25831.579428  -4891.344255  -9312.219853   -577.787560
PC36  18422.343072  15182.189703  14479.378292   -899.828788
PC37  -3834.243280  21220.696254 -17695.984854   -785.036076
PE01 -12295.015335 -20298.663596 -17681.940001   -736.673604
PE02  12335.097229  20240.146895  17744.208064     93.506621
PE03  15690.600248   9677.819511 -23169.164527   -235.576072
PE04 -26390.273422   6432.498229  11757.259143   -410.293045
PE05  -4335.537676  20291.351068 -21114.929305   -429.287812
PE07  21709.337581 -18974.577686   6722.947800   -302.368793
PE08  26344.028192  -6822.619644 -11668.570077   6259.887567
PE09 -21535.842215  19116.572288  -6817.416436   6245.453682
PE11 -13956.700759  10514.677725  23891.611998     77.943717
PE12 -26556.961739  -4920.421618  12125.954013   6088.537836
PE13  14048.811377 -10379.151669 -23889.158597    395.615893
PE14  -9032.326795 -18980.973628 -24745.093527   -802.876396
PE15  26487.359726   4629.029422 -12373.477901    887.011417
PE18  12496.001683  11634.022176  16477.979233   -898.039501
PE19 -13745.737877 -11101.415044  23744.754699     -2.799063
PE21  -1148.010238 -29575.909172   -361.145380   -567.177149
PE24 -10906.630413  21517.432828 -17169.765246   5755.198983
PE25   1103.902132  29578.952627    294.214786   -496.406303
PE26  -6655.745982 -19536.364987 -21205.248660   3850.446501
PE27  10791.374687 -21504.418046  17248.731120    340.852683
PE30  16401.998667   -713.603568  24628.749541   4365.995510
PE31 -16340.691371    850.652118 -24652.479722   -470.591932
PE33 -23416.329111 -16932.825915  -6394.540258   -471.734724
PE36   6656.468944  19331.267759  21415.464902    633.883268
PG01 -21266.289654 -12874.831718   9584.371142   -204.994573
PG02  11762.652507  21354.086490  11304.325140   -351.428589
PG03 -14827.949462  -3091.064707  21755.166017    -40.305879
PG04 -25968.083335   5361.279834    422.146266    -11.582729
PG05   5134.508591  21686.180083 -14435.611644     -3.743566
PG06   -842.389760  18012.789769  19538.675148   -130.870239
PG07 -17338.561395   2126.588024 -19857.309442   -153.768037
PG08 -18438.102928  -7576.243188 -17624.671821    -14.147857
PG09 -25592.763801   7109.313360   -362.822460    -89.267406
PG10  11464.892311 -22754.526641  -7009.145619   -143.542675
PG11 -25050.673068  -8162.915695   1015.772632   -441.360533
PG12  12009.995336   9324.504799  21581.960293    181.112368
PG13   9699.262541  13347.938760 -20951.098435    -31.403693
PG14      0.000000      0.000000      0.000000 999999.999999
PG15  19917.963837   6291.135609 -16916.052692   -271.021463
PG16  -1179.145135 -22615.860312 -13696.804835    -95.449705
PG17 -15721.536254  14156.971716  16433.448163    167.195076
PG18 -19917.976370 -17587.533288    932.509093    101.704259
PG19  -9055.693064  14725.263848  19876.585463   -236.611884
PG20  14371.627890 -15566.241418 -16000.665356    527.512946
PG21  14358.513203  -6708.412536 -20494.712534    -82.490185
PG22 -13158.117571 -11463.913391  20263.144097   -773.167996
PG23 -25119.111797   -282.189806   9547.115590   -154.156529
PG24  22051.746807  13309.493631   7027.897729     -5.215279
PG25  16082.937437  -7125.299282  19601.817348    -17.299247
PG26   3719.273348 -25910.074764  -3826.588817     89.314872
PG27  -6670.458186 -13563.609212 -21976.413914   -127.122453
PG28 -12527.329729  22766.268366  -5185.572849    754.089011
PG29  26216.089480  -4284.148145    693.474477     38.147864
PG30  -9091.990196  13061.844533 -21214.584086    -89.013992
PG31   -435.503420 -19235.178854  18086.498393     -4.756710
PG32  14776.541632 -15359.157303  15826.102584    132.293715
PJ01 -33320.798279  25375.023216   9816.081465   -331.070007
PJ02 -18144.052524  27174.419149 -22082.410108     -0.115847
PJ03 -30290.521857  25482.772063  19691.855872     -7.109103
PJ07 -25393.649711  33665.816075      2.379437     -0.026139
PR01   4085.749262  11406.830513 -22451.653601     53.015626
PR02  17687.627886  -6020.435456 -17305.758218    398.853450
PR03  18494.580112 -17455.896934  -1578.117209      5.212723
PR05  -5924.924483  -9354.332306  22979.694084     39.839993
PR06 -17995.325213   7111.236024  16618.258115    166.091790
PR07 -18412.612908  17652.210090   1115.913936    -29.742452
PR08  -8847.347502  18799.432565 -14763.871445     14.286137
PR09 -11927.192190  -2155.584706 -22435.407849    102.301993
PR10   3532.566102  24375.464801  -6698.882363    -51.584542
PR11   3117.737225  24329.859030  -6899.507963     19.212029
PR12  10514.105218  21087.558619   9831.823388     81.255257
PR13  12175.214909   5177.757883  21796.586440    -31.279956
PR14   6679.992565 -13343.470889  20707.911223     45.305196
PR15  -2603.211459 -24145.351428   7823.846109    104.842571
PR16 -11032.712156 -20600.060972 -10096.885506      0.112814
PR17  17037.550241  -4138.387678 -18534.671197    277.702337
PR18     67.378335 -10794.506548 -23096.208578     15.313923
PR19 -16334.672549 -12068.507272 -15421.799900    -65.122730
PR20 -24629.678401  -5907.557241   3191.460855   -396.822698
PR21 -16311.614245   4491.773842  19080.018284    -86.740621
PR23  20813.073169  10584.747059  10274.933138    268.302564
PR24      0.000000      0.000000      0.000000 999999.999999
PR26 -24483.615717  -7066.878732   -594.196626     10.233350
EOF
